OBJECT_NAME,OBJECT_ID,EPOCH,MEAN_MOTION,ECCENTRICITY,INCLINATION,RA_OF_ASC_NODE,ARG_OF_PERICENTER,MEAN_ANOMALY,EPHEMERIS_TYPE,CLASSIFICATION_TYPE,NORAD_CAT_ID,ELEMENT_SET_NO,REV_AT_EPOCH,BSTAR,MEAN_MOTION_DOT,MEAN_MOTION_DDOT
STARLINK-36564,2026-014T,2026-06-27T06:23:42.264960,15.33452441,.00017777,97.2861,64.8024,95.8918,264.2527,0,U,67549,999,2551,.61356974E-3,.1979E-3,0
STARLINK-36563,2026-014U,2026-06-27T05:09:18.680256,15.33441511,.00015648,97.2863,64.8717,98.3343,261.8077,0,U,67550,999,2557,.58230201E-3,.18769E-3,0
STARLINK-36566,2026-014V,2026-06-27T06:31:32.085696,15.33438665,.00019907,97.2861,64.7953,103.4727,256.6738,0,U,67551,999,2556,.36187537E-3,.11624E-3,0
STARLINK-36567,2026-014W,2026-06-27T05:24:58.421088,15.33444297,.0001441,97.2854,64.8554,85.5730,274.5677,0,U,67552,999,2556,.6522602E-3,.21041E-3,0
STARLINK-36569,2026-014X,2026-06-27T05:36:43.407936,15.33434792,.00018914,97.2862,64.8467,89.9842,270.1618,0,U,67553,999,2556,.38541365E-3,.12384E-3,0
STARLINK-36395,2026-014Y,2026-06-27T05:55:41.465280,15.33445542,.00021981,97.2856,67.7279,78.5116,281.6373,0,U,67554,999,2575,.70144272E-3,.22639E-3,0
STARLINK-36559,2026-014Z,2026-06-27T05:48:28.054368,15.33444537,.00015755,97.2863,64.8346,90.4274,269.7149,0,U,67555,999,2556,.65858988E-3,.21246E-3,0
STARLINK-36426,2026-014AA,2026-06-27T06:35:27.283776,15.33438739,.00024922,97.2863,64.9440,75.2682,284.8837,0,U,67560,999,2557,.55837948E-3,.17992E-3,0
STARLINK-36621,2026-016A,2026-06-27T03:15:16.289280,15.33444226,.00005458,97.2847,237.9436,108.8162,251.3140,0,U,67561,999,2363,.81202624E-3,.2623E-3,0
STARLINK-36398,2026-016B,2026-06-27T03:27:01.109376,15.33445320,.00003823,97.2843,238.0853,124.4303,235.6976,0,U,67562,999,2364,.98075511E-3,.31721E-3,0
STARLINK-36403,2026-016C,2026-06-27T03:54:24.475392,15.33438142,.00012247,97.2848,238.0600,94.3579,265.7804,0,U,67563,999,2364,-.11065352E-3,-.3645E-4,0
STARLINK-36593,2026-016D,2026-06-27T04:02:15.214560,15.33440459,.00003106,97.2864,238.0518,108.0982,252.0295,0,U,67564,999,2364,.72739997E-3,.23478E-3,0
STARLINK-35725,2026-016E,2026-06-27T02:55:41.768544,15.33441733,.00002777,97.2845,237.9641,106.3402,253.7871,0,U,67565,999,2363,.99469779E-3,.32171E-3,0
STARLINK-36394,2026-016F,2026-06-27T02:59:36.733344,15.33439046,.00006207,97.2845,237.9596,189.5558,170.5673,0,U,67566,999,2363,.82707981E-3,.26715E-3,0
STARLINK-36352,2026-016G,2026-06-27T03:46:35.857344,15.33433633,.00002506,97.2854,238.0697,62.1412,297.9856,0,U,67567,999,2364,.66972771E-3,.216E-3,0
STARLINK-36435,2026-016H,2026-06-27T03:30:55.619712,15.33483850,.0001146,97.2870,238.0836,102.7693,257.3678,0,U,67568,999,2364,.1278186E-2,.41467E-3,0
STARLINK-36575,2026-016J,2026-06-27T03:17:23.867520,15.33443204,.00003404,97.2848,239.0077,152.8571,207.2689,0,U,67569,999,2370,.87051837E-3,.28131E-3,0
STARLINK-36562,2026-016K,2026-06-27T03:42:40.814784,15.33435846,.00005099,97.2850,238.0745,165.2556,194.8701,0,U,67570,999,2364,.88948557E-3,.28742E-3,0
STARLINK-36578,2026-016L,2026-06-27T03:03:31.610880,15.33445153,.00004607,97.2843,237.9556,222.7259,137.3948,0,U,67571,999,2363,.10277899E-2,.33252E-3,0
STARLINK-36350,2026-016M,2026-06-27T04:21:50.032512,15.33445714,.00003618,97.2841,238.0362,90.5364,269.5921,0,U,67572,999,2364,.95497709E-3,.30882E-3,0
STARLINK-36588,2026-016N,2026-06-27T02:51:46.869408,15.33442957,.00009725,97.2841,237.9684,94.8612,265.2741,0,U,67573,999,2363,.95169413E-3,.30772E-3,0
STARLINK-36594,2026-016P,2026-06-27T03:38:46.012416,15.33433470,.00005395,97.2853,238.0773,71.9344,288.1958,0,U,67574,999,2364,.68920882E-3,.22232E-3,0
STARLINK-36400,2026-016Q,2026-06-27T04:06:10.369440,15.33442467,.00013151,97.2851,238.0518,93.2268,266.9125,0,U,67575,999,2364,.8654425E-3,.27966E-3,0
STARLINK-36591,2026-016R,2026-06-27T03:50:30.763392,15.33433406,.00006674,97.2853,238.0667,81.2146,278.9172,0,U,67576,999,2364,.68573503E-3,.2212E-3,0
STARLINK-36590,2026-016S,2026-06-27T04:10:05.099232,15.33443971,.00009753,97.2854,238.0473,102.4623,257.6729,0,U,67577,999,2364,.72149437E-3,.23288E-3,0
STARLINK-36613,2026-016T,2026-06-27T03:11:21.532704,15.33437895,.00003761,97.2847,237.9513,79.3617,280.7668,0,U,67578,999,2363,.74645355E-3,.24095E-3,0
STARLINK-36571,2026-016U,2026-06-27T04:14:00.019968,15.33445670,.00010181,97.2859,238.0433,112.7678,247.3673,0,U,67579,999,2364,.71419341E-3,.23053E-3,0
STARLINK-36612,2026-016V,2026-06-27T03:23:06.267264,15.33444931,.00010244,97.2846,238.0909,83.3692,276.7667,0,U,67580,999,2364,.69864131E-3,.22547E-3,0
STARLINK-36632,2026-016W,2026-06-27T03:58:20.149536,15.33464079,.00005356,97.2885,238.0602,97.9494,262.1810,0,U,67581,999,2364,.14236019E-2,.46193E-3,0
STARLINK-36609,2026-016X,2026-06-27T02:43:57.310464,15.33440516,.00015604,97.2846,237.9759,84.8772,275.2649,0,U,67582,999,2363,.97151416E-3,.31416E-3,0
STARLINK-36577,2026-016Y,2026-06-27T03:19:11.970336,15.33459440,.00001756,97.2845,238.0951,106.6930,253.4332,0,U,67583,999,2364,.79404875E-3,.25658E-3,0
STARLINK-36419,2026-016Z,2026-06-27T03:34:50.968992,15.33434805,.00004485,97.2860,238.0827,221.7337,138.3872,0,U,67584,999,2364,.82358291E-3,.26598E-3,0
STARLINK-36560,2026-016AA,2026-06-27T03:07:26.518656,15.33441637,.00001643,97.2846,237.9558,278.0231,82.0993,0,U,67585,999,2363,.91039144E-3,.29427E-3,0
STARLINK-36641,2026-018A,2026-06-27T03:03:14.076864,15.33438032,.00009792,97.2859,242.7512,112.8272,247.3074,0,U,67589,999,2410,-.47704992E-4,-.1615E-4,0
STARLINK-36376,2026-018B,2026-06-27T04:09:48.612384,15.33444851,.00003098,97.2856,242.8436,172.9687,187.1561,0,U,67590,999,2411,.78185375E-3,.2525E-3,0
STARLINK-36391,2026-018C,2026-06-27T03:22:49.878048,15.33447032,.00011783,97.2846,242.7368,96.8191,263.3185,0,U,67591,999,2410,.10507709E-2,.34003E-3,0
STARLINK-36603,2026-018D,2026-06-27T04:01:59.083680,15.33435696,.00002491,97.2849,242.8512,338.5768,21.5464,0,U,67592,999,2411,.86809713E-3,.28046E-3,0
STARLINK-36634,2026-018E,2026-06-27T03:54:09.356256,15.33442124,.00006355,97.2850,242.8586,119.1818,240.9488,0,U,67593,999,2411,.891605E-3,.28816E-3,0
STARLINK-36638,2026-018F,2026-06-27T03:15:00.086688,15.33442510,.00005233,97.2845,242.7442,93.2761,266.8542,0,U,67594,999,2410,.11145048E-2,.36074E-3,0
STARLINK-36628,2026-018G,2026-06-27T04:17:37.805856,15.33427352,.00009932,97.2849,242.8349,115.2871,244.8475,0,U,67595,999,2411,-.25581731E-3,-.832E-4,0
STARLINK-36629,2026-018H,2026-06-27T04:29:23.422560,15.33445406,.00006008,97.2844,242.8240,122.8007,237.3293,0,U,67596,999,2411,.91435256E-3,.29559E-3,0
STARLINK-36384,2026-018J,2026-06-27T03:30:39.664224,15.33442655,.00008926,97.2849,242.8812,107.4168,252.7173,0,U,67597,999,2411,.82320302E-3,.26593E-3,0
STARLINK-36358,2026-018K,2026-06-27T04:21:35.780832,15.33432027,.00011714,97.2853,242.8320,358.4869,1.6370,0,U,67598,999,2411,.13639991E-2,.442E-3,0
STARLINK-36582,2026-018L,2026-06-27T03:58:04.015200,15.33438150,.0000335,97.2850,242.8534,274.6546,85.4659,0,U,67599,999,2416,.84907425E-3,.2743E-3,0
STARLINK-36640,2026-018M,2026-06-27T04:25:27.585120,15.33425227,.00007204,97.2823,242.8306,19.9389,340.1881,0,U,67600,999,2411,.10061397E-2,.32526E-3,0
STARLINK-36635,2026-018N,2026-06-27T03:38:29.936832,15.33436779,.00007407,97.2840,242.8735,114.5129,245.6191,0,U,67601,999,2411,.10948918E-2,.35429E-3,0
STARLINK-36631,2026-018P,2026-06-27T03:26:44.653632,15.33442999,.00003813,97.2858,242.8866,124.1994,235.9285,0,U,67602,999,2411,.85361233E-3,.27581E-3,0
STARLINK-36626,2026-018Q,2026-06-27T03:50:14.345664,15.33436586,.00000769,97.2850,242.8629,43.2309,316.8940,0,U,67603,999,2411,.87184662E-3,.28169E-3,0
STARLINK-36605,2026-018R,2026-06-27T04:13:43.859712,15.33444090,.00009991,97.2853,242.8408,108.3978,251.7374,0,U,67604,999,2411,.95418996E-3,.30855E-3,0
STARLINK-36281,2026-018S,2026-06-27T04:41:08.310912,15.33439845,.00003208,97.2849,242.8160,125.7028,234.4245,0,U,67605,999,2411,.78148093E-3,.25234E-3,0
STARLINK-35843,2026-018T,2026-06-27T04:05:53.919744,15.33441302,.00010456,97.2852,242.8475,97.2497,262.8865,0,U,67606,999,2411,.72519614E-3,.23407E-3,0
STARLINK-36351,2026-018U,2026-06-27T03:46:19.492320,15.33431929,.00001573,97.2855,242.8667,347.1999,12.9239,0,U,67607,999,2411,.69015772E-3,.22262E-3,0
STARLINK-36411,2026-018V,2026-06-27T03:11:05.053632,15.33450816,.0000805,97.2848,242.7489,110.0010,250.1320,0,U,67608,999,2410,.69652919E-3,.22482E-3,0
STARLINK-36312,2026-018W,2026-06-27T03:42:24.435072,15.33443820,.00001058,97.2844,242.8704,138.9414,221.1837,0,U,67609,999,2411,.10756587E-2,.3481E-3,0
STARLINK-36387,2026-018X,2026-06-27T06:00:02.000160,15.49171586,.00014149,97.2854,249.4211,87.8878,183.7946,0,U,67610,999,599,.41849444E-3,.22722E-3,0
STARLINK-36636,2026-018Y,2026-06-27T03:18:55.218240,15.33459938,.00006604,97.2842,242.7405,238.3975,121.7203,0,U,67611,999,2410,.10667265E-2,.34536E-3,0
STARLINK-36407,2026-018Z,2026-06-27T03:34:35.038560,15.33440068,.00014868,97.2844,242.8788,83.1286,277.0126,0,U,67612,999,2416,.10056286E-2,.32526E-3,0
STARLINK-36597,2026-018AA,2026-06-27T04:33:18.342432,15.33439613,.00009187,97.2864,242.8228,216.1076,144.0104,0,U,67613,999,2411,.80895016E-3,.26127E-3,0
STARLINK-36548,2026-020A,2026-06-26T21:47:38.237280,15.27578756,.0003086,43.0040,243.2891,272.5204,87.5294,0,U,67617,999,2281,.51762E-3,.14009E-3,0
STARLINK-36601,2026-020B,2026-06-26T21:27:17.196192,15.27578974,.000114,42.9999,243.1610,288.5845,71.4883,0,U,67618,999,2281,.44428E-3,.11983E-3,0
STARLINK-36119,2026-020C,2026-06-26T21:38:22.947072,15.27593524,.0001378,43.0042,243.2331,278.5041,81.5654,0,U,67619,999,2281,-.18673E-3,-.5399E-4,0
STARLINK-36607,2026-020D,2026-06-26T14:20:41.813952,15.27587983,.0001548,43.0009,244.3744,268.9661,91.1013,0,U,67620,999,2277,.53846E-3,.14588E-3,0
STARLINK-36615,2026-020E,2026-06-26T21:51:21.156192,15.27573520,.0000462,42.9990,243.2870,319.6025,40.4792,0,U,67621,999,2281,.9721E-3,.26579E-3,0
STARLINK-36614,2026-020F,2026-06-26T21:23:35.117088,15.27580933,.0001074,42.9996,243.1522,283.7811,76.2921,0,U,67622,999,2281,.48431E-3,.13089E-3,0
